[{"OBJECT_NAME":"ISS (ZARYA)","OBJECT_ID":"1998-067A","EPOCH":"2026-03-18T03:52:30.016128","MEAN_MOTION":15.48351952,"ECCENTRICITY":0.00062422,"INCLINATION":51.6338,"RA_OF_ASC_NODE":30.4771,"ARG_OF_PERICENTER":203.4545,"MEAN_ANOMALY":156.6159,"EPHEMERIS_TYPE":0,"CLASSIFICATION_TYPE":"U","NORAD_CAT_ID":25544,"ELEMENT_SET_NO":999,"REV_AT_EPOCH":55764,"BSTAR":0.00014196061,"MEAN_MOTION_DOT":7.208e-5,"MEAN_MOTION_DDOT":0},{"OBJECT_NAME":"POISK","OBJECT_ID":"2009-060A","EPOCH":"2026-03-18T03:52:30.016128","MEAN_MOTION":15.48351952,"ECCENTRICITY":0.00062422,"INCLINATION":51.6338,"RA_OF_ASC_NODE":30.4771,"ARG_OF_PERICENTER":203.4545,"MEAN_ANOMALY":156.6159,"EPHEMERIS_TYPE":0,"CLASSIFICATION_TYPE":"U","NORAD_CAT_ID":36086,"ELEMENT_SET_NO":999,"REV_AT_EPOCH":55444,"BSTAR":0.00014196061,"MEAN_MOTION_DOT":7.208e-5,"MEAN_MOTION_DDOT":0},{"OBJECT_NAME":"CSS (TIANHE)","OBJECT_ID":"2021-035A","EPOCH":"2026-03-18T03:52:08.500800","MEAN_MOTION":15.611222,"ECCENTRICITY":0.00059985,"INCLINATION":41.4669,"RA_OF_ASC_NODE":156.5982,"ARG_OF_PERICENTER":324.6627,"MEAN_ANOMALY":35.3814,"EPHEMERIS_TYPE":0,"CLASSIFICATION_TYPE":"U","NORAD_CAT_ID":48274,"ELEMENT_SET_NO":999,"REV_AT_EPOCH":27893,"BSTAR":0.00025475668,"MEAN_MOTION_DOT":0.00021858,"MEAN_MOTION_DDOT":0},{"OBJECT_NAME":"ISS (NAUKA)","OBJECT_ID":"2021-066A","EPOCH":"2026-03-18T03:52:30.016128","MEAN_MOTION":15.48351952,"ECCENTRICITY":0.00062422,"INCLINATION":51.6338,"RA_OF_ASC_NODE":30.4771,"ARG_OF_PERICENTER":203.4545,"MEAN_ANOMALY":156.6159,"EPHEMERIS_TYPE":0,"CLASSIFICATION_TYPE":"U","NORAD_CAT_ID":49044,"ELEMENT_SET_NO":999,"REV_AT_EPOCH":55445,"BSTAR":0.00014196061,"MEAN_MOTION_DOT":7.208e-5,"MEAN_MOTION_DDOT":0},{"OBJECT_NAME":"FREGAT DEB","OBJECT_ID":"2011-037PF","EPOCH":"2026-03-17T19:44:49.429248","MEAN_MOTION":12.40466807,"ECCENTRICITY":0.09641082,"INCLINATION":51.6496,"RA_OF_ASC_NODE":276.3425,"ARG_OF_PERICENTER":78.0448,"MEAN_ANOMALY":292.6707,"EPHEMERIS_TYPE":0,"CLASSIFICATION_TYPE":"U","NORAD_CAT_ID":49271,"ELEMENT_SET_NO":999,"REV_AT_EPOCH":21370,"BSTAR":0.015275082,"MEAN_MOTION_DOT":0.00010779,"MEAN_MOTION_DDOT":0},{"OBJECT_NAME":"CSS (WENTIAN)","OBJECT_ID":"2022-085A","EPOCH":"2026-03-18T03:52:08.500800","MEAN_MOTION":15.611222,"ECCENTRICITY":0.00059985,"INCLINATION":41.4669,"RA_OF_ASC_NODE":156.5982,"ARG_OF_PERICENTER":324.6627,"MEAN_ANOMALY":35.3814,"EPHEMERIS_TYPE":0,"CLASSIFICATION_TYPE":"U","NORAD_CAT_ID":53239,"ELEMENT_SET_NO":999,"REV_AT_EPOCH":27894,"BSTAR":0.00025475668,"MEAN_MOTION_DOT":0.00021858,"MEAN_MOTION_DDOT":0},{"OBJECT_NAME":"CSS (MENGTIAN)","OBJECT_ID":"2022-143A","EPOCH":"2026-03-18T03:52:08.500800","MEAN_MOTION":15.611222,"ECCENTRICITY":0.00059985,"INCLINATION":41.4669,"RA_OF_ASC_NODE":156.5982,"ARG_OF_PERICENTER":324.6627,"MEAN_ANOMALY":35.3814,"EPHEMERIS_TYPE":0,"CLASSIFICATION_TYPE":"U","NORAD_CAT_ID":54216,"ELEMENT_SET_NO":999,"REV_AT_EPOCH":27870,"BSTAR":0.00025475668,"MEAN_MOTION_DOT":0.00021858,"MEAN_MOTION_DDOT":0},{"OBJECT_NAME":"TIANZHOU-9","OBJECT_ID":"2025-149A","EPOCH":"2026-03-18T03:52:08.500800","MEAN_MOTION":15.611222,"ECCENTRICITY":0.00059985,"INCLINATION":41.4669,"RA_OF_ASC_NODE":156.5982,"ARG_OF_PERICENTER":324.6627,"MEAN_ANOMALY":35.3814,"EPHEMERIS_TYPE":0,"CLASSIFICATION_TYPE":"U","NORAD_CAT_ID":64786,"ELEMENT_SET_NO":999,"REV_AT_EPOCH":27878,"BSTAR":0.00025475668,"MEAN_MOTION_DOT":0.00021858,"MEAN_MOTION_DDOT":0},{"OBJECT_NAME":"PROGRESS-MS 32","OBJECT_ID":"2025-204A","EPOCH":"2026-03-18T03:52:30.016128","MEAN_MOTION":15.48351952,"ECCENTRICITY":0.00062422,"INCLINATION":51.6338,"RA_OF_ASC_NODE":30.4771,"ARG_OF_PERICENTER":203.4545,"MEAN_ANOMALY":156.6159,"EPHEMERIS_TYPE":0,"CLASSIFICATION_TYPE":"U","NORAD_CAT_ID":65586,"ELEMENT_SET_NO":999,"REV_AT_EPOCH":55450,"BSTAR":0.00014196061,"MEAN_MOTION_DOT":7.208e-5,"MEAN_MOTION_DDOT":0},{"OBJECT_NAME":"YOTSUBA-KULOVER","OBJECT_ID":"1998-067XN","EPOCH":"2026-03-18T00:58:49.665504","MEAN_MOTION":15.84580231,"ECCENTRICITY":0.00049835,"INCLINATION":51.6212,"RA_OF_ASC_NODE":13.8462,"ARG_OF_PERICENTER":129.9788,"MEAN_ANOMALY":230.1654,"EPHEMERIS_TYPE":0,"CLASSIFICATION_TYPE":"U","NORAD_CAT_ID":65941,"ELEMENT_SET_NO":999,"REV_AT_EPOCH":2482,"BSTAR":0.00089413122,"MEAN_MOTION_DOT":0.00215094,"MEAN_MOTION_DDOT":0},{"OBJECT_NAME":"E-KAGAKU-1","OBJECT_ID":"1998-067XQ","EPOCH":"2026-03-18T01:08:27.892320","MEAN_MOTION":15.84077394,"ECCENTRICITY":0.00056132,"INCLINATION":51.6236,"RA_OF_ASC_NODE":13.9111,"ARG_OF_PERICENTER":132.6674,"MEAN_ANOMALY":227.4803,"EPHEMERIS_TYPE":0,"CLASSIFICATION_TYPE":"U","NORAD_CAT_ID":65943,"ELEMENT_SET_NO":999,"REV_AT_EPOCH":2482,"BSTAR":0.00087683062,"MEAN_MOTION_DOT":0.00205727,"MEAN_MOTION_DDOT":0},{"OBJECT_NAME":"HRC MONOBLOCK CAMERA","OBJECT_ID":"1998-067XR","EPOCH":"2026-03-18T03:24:00.386496","MEAN_MOTION":15.6312659,"ECCENTRICITY":0.00038933,"INCLINATION":51.6291,"RA_OF_ASC_NODE":22.8447,"ARG_OF_PERICENTER":131.3617,"MEAN_ANOMALY":228.7713,"EPHEMERIS_TYPE":0,"CLASSIFICATION_TYPE":"U","NORAD_CAT_ID":66052,"ELEMENT_SET_NO":999,"REV_AT_EPOCH":2371,"BSTAR":0.00046453559,"MEAN_MOTION_DOT":0.00042919,"MEAN_MOTION_DDOT":0},{"OBJECT_NAME":"HTV-X1","OBJECT_ID":"2025-241A","EPOCH":"2026-03-14T08:15:41.714784","MEAN_MOTION":15.22910164,"ECCENTRICITY":0.00057383,"INCLINATION":51.6357,"RA_OF_ASC_NODE":50.71,"ARG_OF_PERICENTER":187.3558,"MEAN_ANOMALY":172.7336,"EPHEMERIS_TYPE":0,"CLASSIFICATION_TYPE":"U","NORAD_CAT_ID":66174,"ELEMENT_SET_NO":999,"REV_AT_EPOCH":2166,"BSTAR":0.00057208053,"MEAN_MOTION_DOT":0.00013297,"MEAN_MOTION_DDOT":0},{"OBJECT_NAME":"SZ-21 MODULE","OBJECT_ID":"2025-246C","EPOCH":"2026-03-17T14:02:08.684736","MEAN_MOTION":15.6917503,"ECCENTRICITY":5.925e-5,"INCLINATION":41.4741,"RA_OF_ASC_NODE":154.7368,"ARG_OF_PERICENTER":302.6268,"MEAN_ANOMALY":57.4517,"EPHEMERIS_TYPE":0,"CLASSIFICATION_TYPE":"U","NORAD_CAT_ID":66515,"ELEMENT_SET_NO":999,"REV_AT_EPOCH":1931,"BSTAR":0.00024560925,"MEAN_MOTION_DOT":0.00029162,"MEAN_MOTION_DDOT":0},{"OBJECT_NAME":"SHENZHOU-22","OBJECT_ID":"2025-272A","EPOCH":"2026-03-18T03:52:08.500800","MEAN_MOTION":15.611222,"ECCENTRICITY":0.00059985,"INCLINATION":41.4669,"RA_OF_ASC_NODE":156.5982,"ARG_OF_PERICENTER":324.6627,"MEAN_ANOMALY":35.3814,"EPHEMERIS_TYPE":0,"CLASSIFICATION_TYPE":"U","NORAD_CAT_ID":66645,"ELEMENT_SET_NO":999,"REV_AT_EPOCH":27886,"BSTAR":0.00025475668,"MEAN_MOTION_DOT":0.00021858,"MEAN_MOTION_DDOT":0},{"OBJECT_NAME":"SOYUZ-MS 28","OBJECT_ID":"2025-275A","EPOCH":"2026-03-18T03:52:30.016128","MEAN_MOTION":15.48351952,"ECCENTRICITY":0.00062422,"INCLINATION":51.6338,"RA_OF_ASC_NODE":30.4771,"ARG_OF_PERICENTER":203.4545,"MEAN_ANOMALY":156.6159,"EPHEMERIS_TYPE":0,"CLASSIFICATION_TYPE":"U","NORAD_CAT_ID":66664,"ELEMENT_SET_NO":999,"REV_AT_EPOCH":55452,"BSTAR":0.00014196061,"MEAN_MOTION_DOT":7.208e-5,"MEAN_MOTION_DDOT":0}]
