ISS (ZARYA)             
1 25544U 98067A   26077.16145852  .00007208  00000+0  14196-3 0  9994
2 25544  51.6338  30.4771 0006242 203.4545 156.6159 15.48351952557640
POISK                   
1 36086U 09060A   26077.16145852  .00007208  00000+0  14196-3 0  9992
2 36086  51.6338  30.4771 0006242 203.4545 156.6159 15.48351952554448
CSS (TIANHE)            
1 48274U 21035A   26077.16120950  .00021858  00000+0  25476-3 0  9992
2 48274  41.4669 156.5982 0005998 324.6627  35.3814 15.61122200278937
ISS (NAUKA)             
1 49044U 21066A   26077.16145852  .00007208  00000+0  14196-3 0  9990
2 49044  51.6338  30.4771 0006242 203.4545 156.6159 15.48351952554457
FREGAT DEB              
1 49271U 11037PF  26076.82279432  .00010779  00000+0  15275-1 0  9997
2 49271  51.6496 276.3425 0964108  78.0448 292.6707 12.40466807213708
CSS (WENTIAN)           
1 53239U 22085A   26077.16120950  .00021858  00000+0  25476-3 0  9995
2 53239  41.4669 156.5982 0005998 324.6627  35.3814 15.61122200278945
CSS (MENGTIAN)          
1 54216U 22143A   26077.16120950  .00021858  00000+0  25476-3 0  9996
2 54216  41.4669 156.5982 0005998 324.6627  35.3814 15.61122200278705
TIANZHOU-9              
1 64786U 25149A   26077.16120950  .00021858  00000+0  25476-3 0  9998
2 64786  41.4669 156.5982 0005998 324.6627  35.3814 15.61122200278786
PROGRESS-MS 32          
1 65586U 25204A   26077.16145852  .00007208  00000+0  14196-3 0  9997
2 65586  51.6338  30.4771 0006242 203.4545 156.6159 15.48351952554502
YOTSUBA-KULOVER         
1 65941U 98067XN  26077.04085261  .00215094  00000+0  89413-3 0  9991
2 65941  51.6212  13.8462 0004983 129.9788 230.1654 15.84580231 24820
E-KAGAKU-1              
1 65943U 98067XQ  26077.04754505  .00205727  00000+0  87683-3 0  9996
2 65943  51.6236  13.9111 0005613 132.6674 227.4803 15.84077394 24822
HRC MONOBLOCK CAMERA    
1 66052U 98067XR  26077.14167114  .00042919  00000+0  46454-3 0  9996
2 66052  51.6291  22.8447 0003893 131.3617 228.7713 15.63126590 23718
HTV-X1                  
1 66174U 25241A   26073.34423281  .00013297  00000+0  57208-3 0  9999
2 66174  51.6357  50.7100 0005738 187.3558 172.7336 15.22910164 21661
SZ-21 MODULE            
1 66515U 25246C   26076.58482274  .00029162  00000+0  24561-3 0  9993
2 66515  41.4741 154.7368 0000592 302.6268  57.4517 15.69175030 19313
SHENZHOU-22             
1 66645U 25272A   26077.16120950  .00021858  00000+0  25476-3 0  9991
2 66645  41.4669 156.5982 0005998 324.6627  35.3814 15.61122200278861
SOYUZ-MS 28             
1 66664U 25275A   26077.16145852  .00007208  00000+0  14196-3 0  9993
2 66664  51.6338  30.4771 0006242 203.4545 156.6159 15.48351952554522
